H1 CPF 01  gfz 2022 06 27 12  6782 terrasarx 
H2 0702601  6201 31698    2022 06 27 12 59 42 2022 07 02 00 00 42   120 1 1  0 0 0
H9
10 0 59760  52542.000000  0    4288734.541   4920961.362   2194627.697
10 0 59760  52662.000000  0    4195059.288   4541837.381   3029871.037
10 0 59760  52782.000000  0    4020731.131   4085648.907   3811764.181
10 0 59760  52902.000000  0    3767544.047   3561780.906   4526551.939
10 0 59760  53022.000000  0    3438851.692   2980760.299   5161673.291
10 0 59760  53142.000000  0    3039520.450   2354039.007   5705984.399
10 0 59760  53262.000000  0    2575852.643   1693762.267   6149948.336
10 0 59760  53382.000000  0    2055483.982   1012529.649   6485796.991
10 0 59760  53502.000000  0    1487254.081    323152.154   6707660.398
10 0 59760  53622.000000  0     881053.709   -361587.725   6811663.545
10 0 59760  53742.000000  0     247651.599  -1029172.651   6795991.277
10 0 59760  53862.000000  0    -401497.255  -1667579.488   6660917.700
10 0 59760  53982.000000  0   -1054458.749  -2265495.667   6408801.080
10 0 59760  54102.000000  0   -1699037.936  -2812519.586   6044043.625
10 0 59760  54222.000000  0   -2323004.153  -3299341.958   5573019.866
10 0 59760  54342.000000  0   -2914323.633  -3717907.902   5003973.557
10 0 59760  54462.000000  0   -3461395.917  -4061555.348   4346879.684
10 0 59760  54582.000000  0   -3953285.555  -4325125.482   3613272.979
10 0 59760  54702.000000  0   -4379944.114  -4505044.074   2816047.645
10 0 59760  54822.000000  0   -4732419.299  -4599372.296   1969231.438
10 0 59760  54942.000000  0   -5003046.522  -4607824.834   1087735.429
10 0 59760  55062.000000  0   -5185616.640  -4531753.552    187085.421
10 0 59760  55182.000000  0   -5275516.067  -4374097.840   -716859.381
10 0 59760  55302.000000  0   -5269835.362  -4139302.620  -1608195.075
10 0 59760  55422.000000  0   -5167442.481  -3833205.063  -2471262.593
10 0 59760  55542.000000  0   -4969018.775  -3462893.724  -3290929.352
10 0 59760  55662.000000  0   -4677058.806  -3036545.428  -4052857.513
10 0 59760  55782.000000  0   -4295834.852  -2563243.884  -4743754.564
10 0 59760  55902.000000  0   -3831326.512  -2052784.351  -5351601.401
10 0 59760  56022.000000  0   -3291118.424  -1515469.650  -5865854.057
10 0 59760  56142.000000  0   -2684269.166   -961901.660  -6277616.754
10 0 59760  56262.000000  0   -2021153.896   -402773.109  -6579784.716
10 0 59760  56382.000000  0   -1313283.559    151336.116  -6767154.849
10 0 59760  56502.000000  0    -573106.384    690154.083  -6836504.373
10 0 59760  56622.000000  0     186206.590   1203902.267  -6786640.390
10 0 59760  56742.000000  0     950989.331   1683467.860  -6618418.123
10 0 59760  56862.000000  0    1707321.152   2120561.936  -6334730.332
10 0 59760  56982.000000  0    2441275.152   2507861.169  -5940462.633
10 0 59760  57102.000000  0    3139171.125   2839130.393  -5442417.670
10 0 59760  57222.000000  0    3787827.584   3109323.762  -4849208.220
10 0 59760  57342.000000  0    4374812.283   3314664.774  -4171120.695
10 0 59760  57462.000000  0    4888685.281   3452701.789  -3419946.738
10 0 59760  57582.000000  0    5319227.978   3522337.285  -2608785.363
10 0 59760  57702.000000  0    5657653.557   3523831.488  -1751819.612
10 0 59760  57822.000000  0    5896794.465   3458777.969   -864068.871
10 0 59760  57942.000000  0    6031260.052   3330051.334     38877.182
10 0 59760  58062.000000  0    6057561.516   3141728.348    941138.006
10 0 59760  58182.000000  0    5974199.325   2898983.779   1826829.543
10 0 59760  58302.000000  0    5781709.992   2607964.730   2680352.300
10 0 59760  58422.000000  0    5482672.672   2275645.541   3486675.132
10 0 59760  58542.000000  0    5081672.904   1909666.531   4231607.219
10 0 59760  58662.000000  0    4585225.503   1518161.965   4902051.491
10 0 59760  58782.000000  0    4001662.121   1109581.168   5486234.441
10 0 59760  58902.000000  0    3340982.966    692507.411   5973913.262
10 0 59760  59022.000000  0    2614675.197    275478.311   6356549.719
10 0 59760  59142.000000  0    1835507.939   -133186.729   6627452.241
10 0 59760  59262.000000  0    1017304.868   -525550.818   6781888.105
10 0 59760  59382.000000  0     174696.029   -894212.958   6817162.063
10 0 59760  59502.000000  0    -677144.587  -1232446.745   6732659.363
10 0 59760  59622.000000  0   -1522771.663  -1534323.065   6529855.067
10 0 59760  59742.000000  0   -2346747.072  -1794813.848   6212288.583
10 0 59760  59862.000000  0   -3133919.515  -2009875.153   5785506.719
10 0 59760  59982.000000  0   -3869705.783  -2176511.106   5256975.474
10 0 59760  60102.000000  0   -4540366.422  -2292816.270   4635954.661
10 0 59760  60222.000000  0   -5133268.500  -2357994.563   3933339.953
10 0 59760  60342.000000  0   -5637130.535  -2372353.801   3161474.624
10 0 59760  60462.000000  0   -6042245.147  -2337276.925   2333934.737
10 0 59760  60582.000000  0   -6340675.539  -2255171.451   1465289.781
10 0 59760  60702.000000  0   -6526419.471  -2129396.471    570839.923
10 0 59760  60822.000000  0   -6595533.303  -1964168.378   -333661.082
10 0 59760  60942.000000  0   -6546216.664  -1764448.487  -1232292.354
10 0 59760  61062.000000  0   -6378852.270  -1535815.507  -2109255.608
10 0 59760  61182.000000  0   -6096001.547  -1284326.592  -2949160.217
10 0 59760  61302.000000  0   -5702357.034  -1016370.575  -3737298.066
10 0 59760  61422.000000  0   -5204653.547   -738516.736  -4459902.789
10 0 59760  61542.000000  0   -4611540.716   -457362.768  -5104388.290
10 0 59760  61662.000000  0   -3933420.246   -179386.322  -5659562.300
10 0 59760  61782.000000  0   -3182252.412     89196.747  -6115811.524
10 0 59760  61902.000000  0   -2371337.795    342564.567  -6465255.974
10 0 59760  62022.000000  0   -1515078.901    575408.664  -6701873.447
10 0 59760  62142.000000  0    -628724.693    783039.238  -6821592.873
10 0 59760  62262.000000  0     271896.441    961475.896  -6822355.545
10 0 59760  62382.000000  0    1170651.273   1107520.664  -6704146.807
10 0 59760  62502.000000  0    2051384.393   1218813.830  -6468998.964
10 0 59760  62622.000000  0    2898203.138   1293872.040  -6120960.025
10 0 59760  62742.000000  0    3695760.212   1332107.057  -5666030.365
10 0 59760  62862.000000  0    4429528.844   1333825.077  -5112069.124
10 0 59760  62982.000000  0    5086069.566   1300207.137  -4468670.731
10 0 59760  63102.000000  0    5653282.482   1233270.570  -3747009.100
10 0 59760  63222.000000  0    6120638.624   1135811.631  -2959652.554
10 0 59760  63342.000000  0    6479386.594   1011330.333  -2120351.907
10 0 59760  63462.000000  0    6722729.577    863939.320  -1243802.804
10 0 59760  63582.000000  0    6845965.855    698257.797   -345386.327
10 0 59760  63702.000000  0    6846588.379    519293.639    559105.881
10 0 59760  63822.000000  0    6724341.999    332317.066   1453755.620
10 0 59760  63942.000000  0    6481236.479    142727.181   2322807.254
10 0 59760  64062.000000  0    6121511.942    -44083.377   3150954.797
10 0 59760  64182.000000  0    5651559.607   -222863.423   3923618.919
10 0 59760  64302.000000  0    5079799.628   -388632.554   4627207.813
10 0 59760  64422.000000  0    4416521.942   -536803.310   5249359.252
10 0 59760  64542.000000  0    3673689.348   -663293.090   5779157.184
10 0 59760  64662.000000  0    2864712.451   -764621.760   6207318.810
10 0 59760  64782.000000  0    2004200.398   -837994.598   6526351.852
10 0 59760  64902.000000  0    1107692.718   -881368.603   6730680.449
10 0 59760  65022.000000  0     191374.731   -893501.112   6816737.455
10 0 59760  65142.000000  0    -728215.634   -873979.346   6783021.476
10 0 59760  65262.000000  0   -1634485.205   -823231.254   6630120.551
10 0 59760  65382.000000  0   -2511083.420   -742516.496   6360702.159
10 0 59760  65502.000000  0   -3342195.913   -633898.207   5979470.271
10 0 59760  65622.000000  0   -4112831.603   -500195.829   5493089.738
10 0 59760  65742.000000  0   -4809098.225   -344920.415   4910076.463
10 0 59760  65862.000000  0   -5418459.972   -172192.869   4240653.459
10 0 59760  65982.000000  0   -5929971.782     13353.099   3496575.285
10 0 59760  66102.000000  0   -6334484.908    206681.557   2690923.980
10 0 59760  66222.000000  0   -6624821.141    402476.435   1837879.184
10 0 59760  66342.000000  0   -6795909.633    595271.751    952464.754
10 0 59760  66462.000000  0   -6844882.527    779586.444     50277.362
10 0 59760  66582.000000  0   -6771125.959    950061.109   -852797.262
10 0 59760  66702.000000  0   -6576284.381   1101592.628  -1740873.296
10 0 59760  66822.000000  0   -6264220.340   1229462.927  -2598351.146
10 0 59760  66942.000000  0   -5840932.036   1329460.352  -3410198.848
10 0 59760  67062.000000  0   -5314425.479   1397988.318  -4162220.260
10 0 59760  67182.000000  0   -4694549.895   1432159.393  -4841302.050
10 0 59760  67302.000000  0   -3992801.010   1429873.198  -5435637.470
10 0 59760  67422.000000  0   -3222097.602   1389876.399  -5934922.797
10 0 59760  67542.000000  0   -2396537.033   1311803.452  -6330525.647
10 0 59760  67662.000000  0   -1531133.786   1196198.289  -6615623.171
10 0 59760  67782.000000  0    -641545.886   1044516.919  -6785307.765
10 0 59760  67902.000000  0     256203.804    859110.196  -6836661.277
10 0 59760  68022.000000  0    1146008.097    643188.377  -6768800.221
10 0 59760  68142.000000  0    2011958.447    400766.557  -6582891.588
10 0 59760  68262.000000  0    2838623.448    136592.091  -6282134.242
10 0 59760  68382.000000  0    3611319.437   -143944.354  -5871709.947
10 0 59760  68502.000000  0    4316368.622   -434914.248  -5358702.025
10 0 59760  68622.000000  0    4941341.916   -729970.403  -4751985.153
10 0 59760  68742.000000  0    5475284.561  -1022479.182  -4062083.527
10 0 59760  68862.000000  0    5908916.793  -1305662.625  -3300997.886
10 0 59760  68982.000000  0    6234806.099  -1572748.090  -2482004.291
99
